OPTICUBE 04             
1 41851U 16067D   18256.23975509 -.00000133  00000-0 -62913-5 0  9996
2 41851  97.9220 345.4839 0008026 227.0033 133.0516 14.96699317100262
AEROCUBE 8D             
1 41852U 16067E   18255.88520020 -.00000018  00000-0  37189-5 0  9999
2 41852  97.9243 344.9604 0008445 227.6372 132.4134 14.96548271100192
AEROCUBE 8C             
1 41853U 16067F   18256.23577043 -.00000155  00000-0 -83029-5 0  9994
2 41853  97.9234 345.2724 0009122 228.8103 131.2332 14.96507277100242
PROMETHEUS 2-1          
1 41854U 16067G   18256.50277129 -.00000004  00000-0  50013-5 0  9996
2 41854  97.9240 345.5748 0009504 227.4814 132.5604 14.96636892100283
PROMETHEUS 2-3          
1 41855U 16067H   18256.50550871  .00000120  00000-0  15888-4 0  9993
2 41855  97.9242 345.5841 0009692 227.8694 132.1704 14.96635290100286
ITF-2                   
1 41932U 98067KU  18256.19161609  .00056357  00000-0  25896-3 0  9993
2 41932  51.6290 245.2656 0002349 124.2620 235.8605 15.83062744 94674
WASEDA-SAT3             
1 41933U 98067KV  18256.40792236  .00254377  38497-4  46903-3 0  9993
2 41933  51.6278 229.9113 0003482  96.5076 263.6330 16.00718579 94895
AOBA-VELOX 3            
1 41935U 98067KX  18255.88508014  .00125445  17012-4  38325-3 0  9997
2 41935  51.6312 238.6153 0002954  92.2406 267.8939 15.91745613 94833
INS-1B                  
1 41954U 17008G   18256.48591237  .00001238  00000-0  55267-4 0  9993
2 41954  97.4382 319.6820 0010585  50.8545 309.3631 15.23224490 87443
BGUSAT                  
1 41999U 17008BD  18256.16689475  .00002318  00000-0  95906-4 0  9993
2 41999  97.4427 320.6979 0009943  67.7652 292.4639 15.24933242 86836
DIDO-2                  
1 42000U 17008BE  18256.41821355  .00000958  00000-0  43275-4 0  9990
2 42000  97.4398 320.0882 0010152  67.5722 292.6589 15.23362240 86833
PEASSS                  
1 42015U 17008BV  18255.75799052  .00001117  00000-0  48772-4 0  9995
2 42015  97.4398 319.9977 0008161  76.3649 283.8497 15.24201790 87254
AL-FARABI 1             
1 42016U 17008BW  18256.11928451  .00001429  00000-0  60720-4 0  9997
2 42016  97.4407 320.6220 0008009  75.6255 284.5871 15.24665154 87445
NAYIF-1 (EO-88)         
1 42017U 17008BX  18256.11211184  .00001416  00000-0  60174-4 0  9995
2 42017  97.4404 320.6224 0007986  75.7351 284.4773 15.24690340 87465
HAVELSAT                
1 42700U 98067LH  18256.54888472  .00045159  00000-0  28196-3 0  9994
2 42700  51.6288 261.2681 0000787 252.1888 107.9026 15.76404934 75939
CXBN-2                  
1 42704U 98067LM  18256.40557404  .00041036  00000-0  26225-3 0  9992
2 42704  51.6328 263.3425 0002190  87.1369 272.9881 15.75916340 75814
ICECUBE                 
1 42705U 98067LN  18256.49833553  .00260855  39023-4  54520-3 0  9996
2 42705  51.6457 245.9735 0001737  97.1261 262.9946 15.98525557 76112
PHOENIX                 
1 42706U 98067LP  18256.40640143  .00026132  00000-0  19310-3 0  9994
2 42706  51.6335 265.6123 0001618  87.0285 273.0899 15.72782580 75774
X-CUBESAT               
1 42707U 98067LQ  18256.48564355  .00051256  00000-0  30376-3 0  9993
2 42707  51.6310 260.7502 0001973  84.5812 275.5414 15.77530339 75832
QBEE50-LTU-OC           
1 42708U 98067LR  18256.55520312  .00043487  00000-0  27489-3 0  9995
2 42708  51.6307 262.0692 0001827  63.2067 296.9119 15.76140607 75785
ALTAIR PATHFINDER       
1 42711U 98067LS  18256.54006656  .00017697  00000-0  16984-3 0  9990
2 42711  51.6343 275.5571 0003252 132.1905 227.9368 15.66706006 75314
SHARC                   
1 42712U 98067LT  18256.50709093  .00031642  00000-0  28051-3 0  9996
2 42712  51.6354 276.9044 0001844 100.2301 259.8904 15.68287183 75534
ZA-AEROSAT              
1 42713U 98067LU  18256.51408467  .00030070  00000-0  23548-3 0  9999
2 42713  51.6327 268.5730 0002286 101.6121 258.5133 15.71320024 75402
LINK                    
1 42714U 98067LV  18256.45588577  .00608698  19158-3  81734-3 0  9999
2 42714  51.6169 244.3865 0003962  78.9907 281.1551 16.05911476 75825
CSUNSAT 1               
1 42715U 98067LW  18256.48806495  .00032481  00000-0  24327-3 0  9994
2 42715  51.6327 267.6684 0003233 115.9080 244.2251 15.72336467 75410
SPACECUBE               
1 42717U 98067LY  18256.46297469  .00041581  00000-0  26512-3 0  9998
2 42717  51.6274 262.9003 0000160  19.9609 340.1397 15.75963779 74840
HOOPOE                  
1 42718U 98067LZ  18256.42180179  .00064402  00000-0  32716-3 0  9994
2 42718  51.6273 258.0814 0001429  75.8436 284.2725 15.80849588 74901
NJUST-1                 
1 42722U 98067MB  18256.50641247  .00025128  00000-0  20777-3 0  9992
2 42722  51.6339 270.8090 0003101 195.4122 164.6781 15.70116945 74442
UNSW-ECO                
1 42723U 98067MC  18256.48449568  .00076614  00000-0  35603-3 0  9992
2 42723  51.6369 257.0950 0001016 112.6671 247.4440 15.82703027 74607
LILACSAT-1              
1 42725U 98067ME  18256.50597449  .00036641  00000-0  25683-3 0  9992
2 42725  51.6335 266.2789 0001671 186.5957 173.5020 15.73835970 74402
NSIGHT-1                
1 42726U 98067MF  18256.46453256  .00010511  00000-0  11931-3 0  9994
2 42726  51.6376 281.8946 0004043 198.0886 161.9965 15.62973383 74207
SNUSAT-1                
1 42727U 98067MG  18256.51909630  .00035969  00000-0  25242-3 0  9997
2 42727  51.6315 266.2910 0004062 148.7424 211.3817 15.73810723 74374
I-INSPIRE II            
1 42731U 98067ML  18256.43548861  .00073122  00000-0  32652-3 0  9994
2 42731  51.6328 255.9049 0003839 101.9599 258.1834 15.83561192 74390
POLYITAN-2-SAU          
1 42732U 98067MM  18256.50473109  .00053917  00000-0  32340-3 0  9999
2 42732  51.6316 261.6871 0004101 123.2096 236.9298 15.77230485 74329
SNUSAT-1B               
1 42733U 98067MN  18256.44152030  .00039963  00000-0  26698-3 0  9994
2 42733  51.6313 265.0535 0003840 133.8540 226.2777 15.74903582 74272
EXALTA-1                
1 42734U 98067MP  18256.48281724  .00098127  00000-0  39719-3 0  9997
2 42734  51.6248 254.6032 0002360 122.2886 237.8347 15.85510422 74367
BEEAGLESAT              
1 42736U 98067MR  18256.53461022  .00033675  00000-0  24749-3 0  9990
2 42736  51.6327 267.1870 0002868 188.8615 171.2333 15.72765233 74316
UCLSAT                  
1 42765U 17036A   18255.91585238  .00001171  00000-0  54152-4 0  9994
2 42765  97.3926 314.3203 0013204 124.8352 235.4128 15.22049687 68646
LITUANICASAT-2          
1 42768U 17036D   18255.73425866  .00002187  00000-0  99378-4 0  9994
2 42768  97.3943 313.7078 0017272 117.5088 242.7906 15.21690936 67872
AALTO-1                 
1 42775U 17036L   18255.93685172  .00000780  00000-0  38295-4 0  9990
2 42775  97.3917 313.6718 0015753 114.9340 245.3535 15.20882099 67830
URSA MAIOR              
1 42776U 17036M   18255.91852647  .00000850  00000-0  41376-4 0  9994
2 42776  97.3925 313.7240 0015589 115.1240 245.1615 15.20974353 67832
COMPASS 2               
1 42777U 17036N   18256.18383636  .00001564  00000-0  71402-4 0  9998
2 42777  97.3949 314.5241 0014462 116.8835 243.3881 15.21994741 67891
DIAMOND RED             
1 42783U 17036U   18255.74093935  .00000964  00000-0  45653-4 0  9998
2 42783  97.3928 313.9524 0013818 125.6455 234.6070 15.21627064 67829
PEGASUS                 
1 42784U 17036V   18256.16174843  .00001082  00000-0  50535-4 0  9991
2 42784  97.3928 314.4658 0013734 124.2947 235.9591 15.21850955 67898
DIAMOND GREEN           
1 42785U 17036W   18255.87121854  .00000997  00000-0  47134-4 0  9998
2 42785  97.3929 314.0963 0013701 125.7332 234.5180 15.21628414 67918
DIAMOND BLUE            
1 42786U 17036X   18256.39647695  .00001001  00000-0  47297-4 0  9990
2 42786  97.3928 314.6120 0013561 124.3070 235.9452 15.21630424 67918
NUDTSAT                 
1 42787U 17036Y   18255.91299454  .00001935  00000-0  86335-4 0  9996
2 42787  97.3934 314.5132 0013325 124.5039 235.7458 15.22510448 67719
SUCHAI                  
1 42788U 17036Z   18256.10258517  .00001338  00000-0  61256-4 0  9996
2 42788  97.3930 314.5451 0013347 124.1617 236.0887 15.22151710 67962
SKCUBE                  
1 42789U 17036AA  18255.71012293  .00001212  00000-0  55853-4 0  9999
2 42789  97.3929 314.1456 0013172 125.3254 234.9216 15.22098829 67827
VZLUSAT-1               
1 42790U 17036AB  18255.70409575  .00001596  00000-0  71715-4 0  9993
2 42790  97.3935 314.3142 0012827 125.3226 234.9212 15.22524369 67835
ROBUSTA-1B              
1 42792U 17036AD  18255.93325637  .00001295  00000-0  59238-4 0  9998
2 42792  97.3927 314.4455 0012749 125.3391 234.9039 15.22253077 67878
CICERO 6                
1 42793U 17036AE  18256.20132894  .00001024  00000-0  47790-4 0  9991
2 42793  97.3917 314.6714 0011871 125.2714 234.9635 15.22039517 67986
D-SAT                   
1 42794U 17036AF  18255.89757931  .00000222  00000-0  24906-4 0  9994
2 42794  97.5828 307.1989 0126657 351.0534   8.8427 14.90925873 66797
TOKI                    
1 42820U 98067MU  18256.46746847  .00029883  00000-0  23027-3 0  9991
2 42820  51.6326 270.5042 0002936 100.1916 259.9413 15.71707215 67720
MAZAALAI (NUMSAT-1)     
1 42822U 98067MW  18256.51957981  .00031819  00000-0  24886-3 0  9998
2 42822  51.6327 270.8621 0002717 101.8969 258.2334 15.71318359 67701
BRAC ONNESHA            
1 42823U 98067MX  18256.50827290  .00034687  00000-0  26865-3 0  9992
2 42823  51.6338 270.8098 0003712 138.9811 221.1467 15.71503588 67701
NIGERIAEDUSAT-1         
1 42824U 98067MY  18256.48275023  .00030594  00000-0  24073-3 0  9993
2 42824  51.6342 271.4112 0003665 138.9882 221.1392 15.71192315 67682
CORVUS BC2              
1 42846U 17042X   18256.27331407  .00000326  00000-0  37578-4 0  9992
2 42846  97.5875 155.9256 0008116 262.6520  97.3777 14.91854474 63500
CORVUS BC1              
1 42847U 17042Y   18256.51342036  .00000034  00000-0  86742-5 0  9994
2 42847  97.5874 156.2192 0007693 261.0255  99.0094 14.91953590 63533
